CUPID                   
1 49264U 21088E   26068.66993977  .00009454  00000+0  38662-3 0  9991
2 49264  97.3985 131.0756 0013746  59.9938 300.2662 15.24473777245013
STARLINK-32545          
1 62135U 24222X   26068.22729164  .00037889  00000+0  13788-2 0  9997
2 62135  42.9973 139.1901 0000724 208.4705 151.6107 15.27592527 72720
